[{"OBJECT_NAME":"SMOS","OBJECT_ID":"2009-059A","EPOCH":"2026-03-29T03:07:08.639904","MEAN_MOTION":14.39773789,"ECCENTRICITY":9.36e-5,"INCLINATION":98.4435,"RA_OF_ASC_NODE":276.6287,"ARG_OF_PERICENTER":94.1194,"MEAN_ANOMALY":266.0101,"EPHEMERIS_TYPE":0,"CLASSIFICATION_TYPE":"U","NORAD_CAT_ID":36036,"ELEMENT_SET_NO":999,"REV_AT_EPOCH":86193,"BSTAR":0.00011109,"MEAN_MOTION_DOT":3.05e-6,"MEAN_MOTION_DDOT":0},{"OBJECT_NAME":"YAOGAN-7","OBJECT_ID":"2009-069A","EPOCH":"2026-03-29T04:49:24.870720","MEAN_MOTION":14.7792376,"ECCENTRICITY":0.0023429,"INCLINATION":98.018,"RA_OF_ASC_NODE":334.5201,"ARG_OF_PERICENTER":299.0494,"MEAN_ANOMALY":60.837,"EPHEMERIS_TYPE":0,"CLASSIFICATION_TYPE":"U","NORAD_CAT_ID":36110,"ELEMENT_SET_NO":999,"REV_AT_EPOCH":87781,"BSTAR":0.00011779,"MEAN_MOTION_DOT":7.98e-6,"MEAN_MOTION_DDOT":0},{"OBJECT_NAME":"TANDEM-X","OBJECT_ID":"2010-030A","EPOCH":"2026-03-27T12:21:40.897152","MEAN_MOTION":15.19152112,"ECCENTRICITY":0.0001681,"INCLINATION":97.4466,"RA_OF_ASC_NODE":95.3837,"ARG_OF_PERICENTER":88.6365,"MEAN_ANOMALY":271.5062,"EPHEMERIS_TYPE":0,"CLASSIFICATION_TYPE":"U","NORAD_CAT_ID":36605,"ELEMENT_SET_NO":999,"REV_AT_EPOCH":87424,"BSTAR":5.0024e-5,"MEAN_MOTION_DOT":9.84e-6,"MEAN_MOTION_DDOT":0},{"OBJECT_NAME":"CARTOSAT-2B","OBJECT_ID":"2010-035A","EPOCH":"2026-03-27T10:59:25.998720","MEAN_MOTION":14.78654353,"ECCENTRICITY":0.0012736,"INCLINATION":97.9753,"RA_OF_ASC_NODE":137.5018,"ARG_OF_PERICENTER":94.8962,"MEAN_ANOMALY":265.3704,"EPHEMERIS_TYPE":0,"CLASSIFICATION_TYPE":"U","NORAD_CAT_ID":36795,"ELEMENT_SET_NO":999,"REV_AT_EPOCH":84777,"BSTAR":0.00013576,"MEAN_MOTION_DOT":9.44e-6,"MEAN_MOTION_DDOT":0},{"OBJECT_NAME":"YAOGAN-10","OBJECT_ID":"2010-038A","EPOCH":"2026-03-29T04:26:55.036608","MEAN_MOTION":14.85092276,"ECCENTRICITY":0.00016,"INCLINATION":97.9065,"RA_OF_ASC_NODE":112.2143,"ARG_OF_PERICENTER":83.1222,"MEAN_ANOMALY":9.2311,"EPHEMERIS_TYPE":0,"CLASSIFICATION_TYPE":"U","NORAD_CAT_ID":36834,"ELEMENT_SET_NO":999,"REV_AT_EPOCH":84533,"BSTAR":0.00029069,"MEAN_MOTION_DOT":2.431e-5,"MEAN_MOTION_DDOT":0},{"OBJECT_NAME":"COSMO-SKYMED 4","OBJECT_ID":"2010-060A","EPOCH":"2026-03-28T08:43:34.949280","MEAN_MOTION":14.82160786,"ECCENTRICITY":0.00014971,"INCLINATION":97.8884,"RA_OF_ASC_NODE":272.1304,"ARG_OF_PERICENTER":81.379,"MEAN_ANOMALY":278.7593,"EPHEMERIS_TYPE":0,"CLASSIFICATION_TYPE":"U","NORAD_CAT_ID":37216,"ELEMENT_SET_NO":999,"REV_AT_EPOCH":83259,"BSTAR":2.4820267e-5,"MEAN_MOTION_DOT":1.45e-6,"MEAN_MOTION_DDOT":0},{"OBJECT_NAME":"RESOURCESAT-2","OBJECT_ID":"2011-015A","EPOCH":"2026-03-29T03:18:09.142848","MEAN_MOTION":14.22363093,"ECCENTRICITY":0.0009581,"INCLINATION":98.7709,"RA_OF_ASC_NODE":156.1036,"ARG_OF_PERICENTER":116.0394,"MEAN_ANOMALY":244.1771,"EPHEMERIS_TYPE":0,"CLASSIFICATION_TYPE":"U","NORAD_CAT_ID":37387,"ELEMENT_SET_NO":999,"REV_AT_EPOCH":77480,"BSTAR":-0.00013622,"MEAN_MOTION_DOT":-3.47e-6,"MEAN_MOTION_DDOT":0},{"OBJECT_NAME":"HAIYANG-2A","OBJECT_ID":"2011-043A","EPOCH":"2026-03-27T12:08:48.902784","MEAN_MOTION":13.77309885,"ECCENTRICITY":0.0002981,"INCLINATION":99.3426,"RA_OF_ASC_NODE":90.8166,"ARG_OF_PERICENTER":235.6711,"MEAN_ANOMALY":124.4158,"EPHEMERIS_TYPE":0,"CLASSIFICATION_TYPE":"U","NORAD_CAT_ID":37781,"ELEMENT_SET_NO":999,"REV_AT_EPOCH":73542,"BSTAR":4.7349e-5,"MEAN_MOTION_DOT":3.0e-8,"MEAN_MOTION_DDOT":0},{"OBJECT_NAME":"RASAT","OBJECT_ID":"2011-044D","EPOCH":"2026-03-29T05:31:47.680608","MEAN_MOTION":14.6808375,"ECCENTRICITY":0.0021978,"INCLINATION":98.0545,"RA_OF_ASC_NODE":180.8649,"ARG_OF_PERICENTER":86.261,"MEAN_ANOMALY":327.9042,"EPHEMERIS_TYPE":0,"CLASSIFICATION_TYPE":"U","NORAD_CAT_ID":37791,"ELEMENT_SET_NO":999,"REV_AT_EPOCH":78145,"BSTAR":8.5788e-5,"MEAN_MOTION_DOT":4.45e-6,"MEAN_MOTION_DDOT":0},{"OBJECT_NAME":"SRMSAT","OBJECT_ID":"2011-058D","EPOCH":"2026-03-28T15:03:09.076032","MEAN_MOTION":14.11554455,"ECCENTRICITY":0.0011914,"INCLINATION":19.9709,"RA_OF_ASC_NODE":187.0799,"ARG_OF_PERICENTER":37.8808,"MEAN_ANOMALY":350.3563,"EPHEMERIS_TYPE":0,"CLASSIFICATION_TYPE":"U","NORAD_CAT_ID":37841,"ELEMENT_SET_NO":999,"REV_AT_EPOCH":74642,"BSTAR":8.4528e-5,"MEAN_MOTION_DOT":4.21e-6,"MEAN_MOTION_DDOT":0},{"OBJECT_NAME":"PLEIADES 1A","OBJECT_ID":"2011-076F","EPOCH":"2026-03-29T05:00:53.572032","MEAN_MOTION":14.58555647,"ECCENTRICITY":0.0001509,"INCLINATION":98.2014,"RA_OF_ASC_NODE":164.3729,"ARG_OF_PERICENTER":77.6307,"MEAN_ANOMALY":6.8328,"EPHEMERIS_TYPE":0,"CLASSIFICATION_TYPE":"U","NORAD_CAT_ID":38012,"ELEMENT_SET_NO":999,"REV_AT_EPOCH":76033,"BSTAR":6.682e-5,"MEAN_MOTION_DOT":2.65e-6,"MEAN_MOTION_DDOT":0},{"OBJECT_NAME":"ZIYUAN 1-02C (ZY 1-02C)","OBJECT_ID":"2011-079A","EPOCH":"2026-03-29T05:05:55.027680","MEAN_MOTION":14.38143283,"ECCENTRICITY":0.0006473,"INCLINATION":98.4137,"RA_OF_ASC_NODE":157.1748,"ARG_OF_PERICENTER":176.3621,"MEAN_ANOMALY":277.1149,"EPHEMERIS_TYPE":0,"CLASSIFICATION_TYPE":"U","NORAD_CAT_ID":38038,"ELEMENT_SET_NO":999,"REV_AT_EPOCH":74771,"BSTAR":0.00012085,"MEAN_MOTION_DOT":3.24e-6,"MEAN_MOTION_DDOT":0},{"OBJECT_NAME":"ARIRANG-3 (KOMPSAT-3)","OBJECT_ID":"2012-025B","EPOCH":"2026-03-29T04:07:59.075328","MEAN_MOTION":14.62127713,"ECCENTRICITY":0.0005792,"INCLINATION":98.1095,"RA_OF_ASC_NODE":47.0533,"ARG_OF_PERICENTER":19.6455,"MEAN_ANOMALY":340.4969,"EPHEMERIS_TYPE":0,"CLASSIFICATION_TYPE":"U","NORAD_CAT_ID":38338,"ELEMENT_SET_NO":999,"REV_AT_EPOCH":73965,"BSTAR":0.0001299,"MEAN_MOTION_DOT":6.07e-6,"MEAN_MOTION_DDOT":0},{"OBJECT_NAME":"EXACTVIEW-1 (ADS-1B)","OBJECT_ID":"2012-039C","EPOCH":"2026-03-29T04:39:47.792160","MEAN_MOTION":14.24958873,"ECCENTRICITY":0.0011522,"INCLINATION":98.966,"RA_OF_ASC_NODE":203.8239,"ARG_OF_PERICENTER":46.5039,"MEAN_ANOMALY":313.7095,"EPHEMERIS_TYPE":0,"CLASSIFICATION_TYPE":"U","NORAD_CAT_ID":38709,"ELEMENT_SET_NO":999,"REV_AT_EPOCH":71131,"BSTAR":9.6073e-5,"MEAN_MOTION_DOT":1.78e-6,"MEAN_MOTION_DDOT":0},{"OBJECT_NAME":"SPOT 6","OBJECT_ID":"2012-047A","EPOCH":"2026-03-29T04:59:23.561376","MEAN_MOTION":14.58555846,"ECCENTRICITY":0.0001475,"INCLINATION":98.2185,"RA_OF_ASC_NODE":156.43,"ARG_OF_PERICENTER":85.6752,"MEAN_ANOMALY":274.4616,"EPHEMERIS_TYPE":0,"CLASSIFICATION_TYPE":"U","NORAD_CAT_ID":38755,"ELEMENT_SET_NO":999,"REV_AT_EPOCH":72139,"BSTAR":2.7335e-5,"MEAN_MOTION_DOT":8.1e-7,"MEAN_MOTION_DDOT":0},{"OBJECT_NAME":"PLEIADES 1B","OBJECT_ID":"2012-068A","EPOCH":"2026-03-29T05:27:17.222688","MEAN_MOTION":14.58542348,"ECCENTRICITY":0.0001376,"INCLINATION":98.1984,"RA_OF_ASC_NODE":164.3673,"ARG_OF_PERICENTER":77.3024,"MEAN_ANOMALY":282.8329,"EPHEMERIS_TYPE":0,"CLASSIFICATION_TYPE":"U","NORAD_CAT_ID":39019,"ELEMENT_SET_NO":999,"REV_AT_EPOCH":70919,"BSTAR":3.9374e-5,"MEAN_MOTION_DOT":1.37e-6,"MEAN_MOTION_DDOT":0},{"OBJECT_NAME":"GOKTURK 2","OBJECT_ID":"2012-073A","EPOCH":"2026-03-29T04:40:38.133120","MEAN_MOTION":14.75460174,"ECCENTRICITY":9.18e-5,"INCLINATION":97.6882,"RA_OF_ASC_NODE":289.6118,"ARG_OF_PERICENTER":100.7829,"MEAN_ANOMALY":259.3485,"EPHEMERIS_TYPE":0,"CLASSIFICATION_TYPE":"U","NORAD_CAT_ID":39030,"ELEMENT_SET_NO":999,"REV_AT_EPOCH":71271,"BSTAR":0.00012988,"MEAN_MOTION_DOT":8.36e-6,"MEAN_MOTION_DDOT":0}]
