SMOS                    
1 36036U 09059A   26088.12996111  .00000305  00000+0  11109-3 0  9997
2 36036  98.4435 276.6287 0000936  94.1194 266.0101 14.39773789861938
YAOGAN-7                
1 36110U 09069A   26088.20098230  .00000798  00000+0  11779-3 0  9994
2 36110  98.0180 334.5201 0023429 299.0494  60.8370 14.77923760877815
TANDEM-X                
1 36605U 10030A   26086.51505668  .00000984  00000+0  50024-4 0  9997
2 36605  97.4466  95.3837 0001681  88.6365 271.5062 15.19152112874241
CARTOSAT-2B             
1 36795U 10035A   26086.45793980  .00000944  00000+0  13576-3 0  9997
2 36795  97.9753 137.5018 0012736  94.8962 265.3704 14.78654353847770
YAOGAN-10               
1 36834U 10038A   26088.18535922  .00002431  00000+0  29069-3 0  9993
2 36834  97.9065 112.2143 0001600  83.1222   9.2311 14.85092276845334
COSMO-SKYMED 4          
1 37216U 10060A   26087.36359895  .00000145  00000+0  24820-4 0  9996
2 37216  97.8884 272.1304 0001497  81.3790 278.7593 14.82160786832594
RESOURCESAT-2           
1 37387U 11015A   26088.13760582 -.00000347  00000+0 -13622-3 0  9994
2 37387  98.7709 156.1036 0009581 116.0394 244.1771 14.22363093774804
HAIYANG-2A              
1 37781U 11043A   26086.50612156  .00000003  00000+0  47349-4 0  9996
2 37781  99.3426  90.8166 0002981 235.6711 124.4158 13.77309885735423
RASAT                   
1 37791U 11044D   26088.23041297  .00000445  00000+0  85788-4 0  9991
2 37791  98.0545 180.8649 0021978  86.2610 327.9042 14.68083750781450
SRMSAT                  
1 37841U 11058D   26087.62718838  .00000421  00000+0  84528-4 0  9991
2 37841  19.9709 187.0799 0011914  37.8808 350.3563 14.11554455746424
PLEIADES 1A             
1 38012U 11076F   26088.20895338  .00000265  00000+0  66820-4 0  9999
2 38012  98.2014 164.3729 0001509  77.6307   6.8328 14.58555647760333
ZIYUAN 1-02C (ZY 1-02C) 
1 38038U 11079A   26088.21244245  .00000324  00000+0  12085-3 0  9995
2 38038  98.4137 157.1748 0006473 176.3621 277.1149 14.38143283747719
ARIRANG-3 (KOMPSAT-3)   
1 38338U 12025B   26088.17221152  .00000607  00000+0  12990-3 0  9996
2 38338  98.1095  47.0533 0005792  19.6455 340.4969 14.62127713739653
EXACTVIEW-1 (ADS-1B)    
1 38709U 12039C   26088.19430315  .00000178  00000+0  96073-4 0  9996
2 38709  98.9660 203.8239 0011522  46.5039 313.7095 14.24958873711314
SPOT 6                  
1 38755U 12047A   26088.20791159  .00000081  00000+0  27335-4 0  9992
2 38755  98.2185 156.4300 0001475  85.6752 274.4616 14.58555846721395
PLEIADES 1B             
1 39019U 12068A   26088.22728267  .00000137  00000+0  39374-4 0  9999
2 39019  98.1984 164.3673 0001376  77.3024 282.8329 14.58542348709197
GOKTURK 2               
1 39030U 12073A   26088.19488580  .00000836  00000+0  12988-3 0  9992
2 39030  97.6882 289.6118 0000918 100.7829 259.3485 14.75460174712710
